NORAD_CAT_ID,OBJECT_NAME,OBJECT_TYPE,EPOCH,MEAN_MOTION,ECCENTRICITY,INCLINATION,RA_OF_ASC_NODE,ARG_OF_PERICENTER,MEAN_ANOMALY,BSTAR,MEAN_MOTION_DOT,MEAN_MOTION_DDOT,TLE_LINE0,TLE_LINE1,TLE_LINE2,SEMIMAJOR_AXIS,PERIOD,APOGEE,PERIGEE,DECAYED
53183.0,STARLINK-4268,PAYLOAD,2022-11-27 14:00:01,15.45188163,0.0001516,53.2165,109.789,43.679,336.333,-0.024952,-0.01103479,0.0,0 STARLINK-4268,1 53183U 22083BD  22331.58334491 -.01103479  00000-0 -24952-1 0  9993,2 53183  53.2165 109.7890 0001516  43.6790 336.3330 15.45188163  1307,6808.962,93.193,431.859,429.795,0.0
53183.0,STARLINK-4268,PAYLOAD,2022-11-27 22:00:00,15.44432229,0.0001745,53.2158,108.2061,30.478,44.3101,-0.02566,-0.011056,0.0,0 STARLINK-4268,1 53183U 22083BD  22331.91667824 -.01105600  00000-0 -25660-1 0  9994,2 53183  53.2158 108.2061 0001745  30.4780  44.3101 15.44432229 21623,6811.184,93.238,434.237,431.86,0.0
53183.0,STARLINK-4268,PAYLOAD,2022-11-28 00:00:00,15.44223714,0.0001757,53.2163,107.8092,36.9855,141.3667,-0.025279,-0.01068304,0.0,0 STARLINK-4268,1 53183U 22083BD  22332.00001157 -.01068304  00000-0 -25279-1 0  9991,2 53183  53.2163 107.8092 0001757  36.9855 141.3667 15.44223714  1300,6811.797,93.251,434.859,432.465,0.0
53183.0,STARLINK-4268,PAYLOAD,2022-11-28 22:00:01,15.42135772,0.0001861,53.2155,103.4657,37.0578,196.6675,-0.02713,-0.01083221,0.0,0 STARLINK-4268,1 53183U 22083BD  22332.91668981 -.01083221  00000-0 -27130-1 0  9998,2 53183  53.2155 103.4657 0001861  37.0578 196.6675 15.42135772 21779,6817.944,93.377,441.078,438.54,0.0
53183.0,STARLINK-4268,PAYLOAD,2022-11-29 14:00:01,15.40629304,0.0001496999999999,53.2162,100.314,43.7269,291.3375,-0.029003,-0.01099444,0.0,0 STARLINK-4268,1 53183U 22083BD  22333.58335648 -.01099444  00000-0 -29003-1 0  9998,2 53183  53.2162 100.3140 0001497  43.7269 291.3375 15.40629304  1300,6822.388000000001,93.468,445.274,443.232,0.0
53183.0,STARLINK-4268,PAYLOAD,2022-11-29 22:00:00,15.398538,0.0001751999999999,53.2155,98.7415,31.5113,352.8,-0.029095,-0.01076884,0.0,0 STARLINK-4268,1 53183U 22083BD  22333.91667824 -.01076884  00000-0 -29095-1 0  9993,2 53183  53.2155  98.7415 0001752  31.5113 352.8000 15.39853800 21920,6824.678000000001,93.515,447.739,445.348,0.0
53183.0,STARLINK-4268,PAYLOAD,2022-11-30 14:00:01,15.38328308,0.00019,53.2172,95.5995,35.4089,84.8405,-0.030346,-0.01068785,0.0,0 STARLINK-4268,1 53183U 22083BD  22334.58335648 -.01068785  00000-0 -30346-1 0  9995,2 53183  53.2172  95.5995 0001900  35.4089  84.8405 15.38328308  1307,6829.189,93.608,452.352,449.757,0.0
53183.0,STARLINK-4268,PAYLOAD,2022-11-30 22:00:00,15.37569233,0.0001887,53.2171,94.032,36.5022,130.2486,-0.031115,-0.01068946,0.0,0 STARLINK-4268,1 53183U 22083BD  22334.91667824 -.01068946  00000-0 -31115-1 0  9990,2 53183  53.2171  94.0320 0001887  36.5022 130.2486 15.37569233 22081,6831.437,93.654,454.591,452.013,0.0
53183.0,STARLINK-4268,PAYLOAD,2022-12-01 14:00:01,15.36048564,0.0001816,53.2172,90.9026,38.9019,218.2426,-0.032603,-0.01066266,0.0,0 STARLINK-4268,1 53183U 22083BD  22335.58334491 -.01066266  00000-0 -32603-1 0  9991,2 53183  53.2172  90.9026 0001816  38.9019 218.2426 15.36048564  1305,6835.945,93.747,459.051,456.568,0.0
53183.0,STARLINK-4268,PAYLOAD,2022-12-01 22:00:00,15.35195031,0.0001874,53.2157,89.3422,36.1983,264.8234,-0.029344,-0.0093138,0.0,0 STARLINK-4268,1 53183U 22083BD  22335.91667824 -.00931380  00000-0 -29344-1 0  9992,2 53183  53.2157  89.3422 0001874  36.1983 264.8234 15.35195031 22234,6838.478,93.799,461.625,459.062,0.0
53183.0,STARLINK-4268,PAYLOAD,2022-12-02 00:00:00,15.35077928,0.0001966,53.2163,88.9507,30.6738,11.1224,-0.032619,-0.01036487,0.0,0 STARLINK-4268,1 53183U 22083BD  22336.00001157 -.01036487  00000-0 -32619-1 0  9998,2 53183  53.2163  88.9507 0001966  30.6738  11.1224 15.35077928  1300,6838.826,93.806,462.036,459.347,0.0
53183.0,STARLINK-4268,PAYLOAD,2022-12-02 06:00:00,15.34528957,0.0001398,53.2171,87.7785,47.4469,296.4417,-0.034205,-0.01065257,0.0,0 STARLINK-4268,1 53183U 22083BD  22336.25001157 -.01065257  00000-0 -34205-1 0  9995,2 53183  53.2171  87.7785 0001398  47.4469 296.4417 15.34528957 22284,6840.456999999999,93.84,463.278,461.366,0.0
53183.0,STARLINK-4268,PAYLOAD,2022-12-02 14:00:01,15.33822433,0.0001657,53.2162,86.2235,38.383,347.4794,-0.037568,-0.01137169,0.0,0 STARLINK-4268,1 53183U 22083BD  22336.58334491 -.01137169  00000-0 -37568-1 0  9998,2 53183  53.2162  86.2235 0001657  38.3830 347.4794 15.33822433  1307,6842.557,93.883,465.556,463.289,0.0
53183.0,STARLINK-4268,PAYLOAD,2022-12-02 22:00:00,15.33103819,0.0001886,53.2157,84.6667,16.1621,50.7684,-0.040378,-0.01189476,0.0,0 STARLINK-4268,1 53183U 22083BD  22336.91667824 -.01189476  00000-0 -40378-1 0  9995,2 53183  53.2157  84.6667 0001886  16.1621  50.7684 15.33103819  1300,6844.695,93.927,467.851,465.27,0.0
53183.0,STARLINK-4268,PAYLOAD,2022-12-03 06:00:00,15.322798,0.0006365,53.2162,83.1107,272.2847,194.8567,-0.038183,-0.01105069,0.0,0 STARLINK-4268,1 53183U 22083BD  22337.25001157 -.01105069  00000-0 -38183-1 0  9991,2 53183  53.2162  83.1107 0006365 272.2847 194.8567 15.32279800 22442,6847.149,93.978,473.372,464.656,0.0
53183.0,STARLINK-4268,PAYLOAD,2022-12-03 14:00:01,15.3154929,0.0001177,53.2162,81.5591,337.0535,169.3368,-0.040638,-0.01143901,0.0,0 STARLINK-4268,1 53183U 22083BD  22337.58334491 -.01143901  00000-0 -40638-1 0  9992,2 53183  53.2162  81.5591 0001177 337.0535 169.3368 15.31549290  1301,6849.326,94.022,471.997,470.385,0.0
53183.0,STARLINK-4268,PAYLOAD,2022-12-03 22:00:00,15.30794567,0.0001538,53.2158,80.0073,41.9859,142.7548,-0.041877,-0.01150646,0.0,0 STARLINK-4268,1 53183U 22083BD  22337.91667824 -.01150646  00000-0 -41877-1 0  9998,2 53183  53.2158  80.0073 0001538  41.9859 142.7548 15.30794567  1309,6851.5769999999975,94.069,474.496,472.389,0.0
53183.0,STARLINK-4268,PAYLOAD,2022-12-04 06:00:00,15.29978275,0.0001685,53.2159,78.4561,51.5488,170.6596,-0.039803,-0.01073103,0.0,0 STARLINK-4268,1 53183U 22083BD  22338.25001157 -.01073103  00000-0 -39803-1 0  9995,2 53183  53.2159  78.4561 0001685  51.5488 170.6596 15.29978275 22596,6854.014,94.119,477.034,474.724,0.0
53183.0,STARLINK-4268,PAYLOAD,2022-12-04 14:00:01,15.29210867,0.0001478,53.2164,76.9104,64.4348,194.3022,-0.040289,-0.01061605,0.0,0 STARLINK-4268,1 53183U 22083BD  22338.58334491 -.01061605  00000-0 -40289-1 0  9995,2 53183  53.2164  76.9104 0001478  64.4348 194.3022 15.29210867  1305,6856.307,94.166,479.185,477.159,0.0
53183.0,STARLINK-4268,PAYLOAD,2022-12-04 22:00:00,15.28486693,0.0001424,53.2161,75.3635,49.2833,245.0516,-0.043323,-0.01111618,0.0,0 STARLINK-4268,1 53183U 22083BD  22338.91667824 -.01111618  00000-0 -43323-1 0  9993,2 53183  53.2161  75.3635 0001424  49.2833 245.0516 15.28486693  1308,6858.472,94.211,481.314,479.361,0.0
53183.0,STARLINK-4268,PAYLOAD,2022-12-05 06:00:00,15.27702605,0.0001626,53.2162,73.8182,41.4783,287.5693,-0.042813,-0.01075635,0.0,0 STARLINK-4268,1 53183U 22083BD  22339.25001157 -.01075635  00000-0 -42813-1 0  9993,2 53183  53.2162  73.8182 0001626  41.4783 287.5693 15.27702605 22742,6860.819,94.259,483.8,481.568,0.0
53183.0,STARLINK-4268,PAYLOAD,2022-12-05 14:00:01,15.26942893,0.0001381,53.2163,72.2781,58.1596,304.7394,-0.043878,-0.0107688,0.0,0 STARLINK-4268,1 53183U 22083BD  22339.58335648 -.01076880  00000-0 -43878-1 0  9999,2 53183  53.2163  72.2781 0001381  58.1596 304.7394 15.26942893  1309,6863.094,94.306,485.907,484.012,0.0
53183.0,STARLINK-4268,PAYLOAD,2022-12-05 22:00:01,15.26176126,0.00013,53.2173,70.7348,57.2479,338.5322,-0.044459,-0.01066822,0.0,0 STARLINK-4268,1 53183U 22083BD  22339.91668981 -.01066822  00000-0 -44459-1 0  9996,2 53183  53.2173  70.7348 0001300  57.2479 338.5322 15.26176126  1307,6865.393,94.353,488.151,486.366,0.0
53183.0,STARLINK-4268,PAYLOAD,2022-12-06 06:00:00,15.25423501,0.0001638,53.216,69.1963,42.2825,25.3924,-0.045828,-0.01074256,0.0,0 STARLINK-4268,1 53183U 22083BD  22340.25001157 -.01074256  00000-0 -45828-1 0  9992,2 53183  53.2160  69.1963 0001638  42.2825  25.3924 15.25423501 22900,6867.651,94.4,490.641,488.391,0.0
53183.0,STARLINK-4268,PAYLOAD,2022-12-06 14:00:01,15.24658472,0.000164,53.2165,67.6617,51.2318,47.5591,-0.046623,-0.01068456,0.0,0 STARLINK-4268,1 53183U 22083BD  22340.58335648 -.01068456  00000-0 -46623-1 0  9992,2 53183  53.2165  67.6617 0001640  51.2318  47.5591 15.24658472  1307,6869.948,94.447,492.94,490.686,0.0
53183.0,STARLINK-4268,PAYLOAD,2022-12-06 22:00:00,15.23973759,0.0001843,53.2161,66.1254,43.0866,85.7401,-0.052362,-0.01181909,0.0,0 STARLINK-4268,1 53183U 22083BD  22340.91667824 -.01181909  00000-0 -52362-1 0  9999,2 53183  53.2161  66.1254 0001843  43.0866  85.7401 15.23973759  1307,6872.005999999999,94.49,495.137,492.604,0.0
53183.0,STARLINK-4268,PAYLOAD,2022-12-07 06:00:00,15.23128409,0.0001749,53.2161,64.5908,47.3472,110.7495,-0.048008,-0.0105231,0.0,0 STARLINK-4268,1 53183U 22083BD  22341.25001157 -.01052310  00000-0 -48008-1 0  9993,2 53183  53.2161  64.5908 0001749  47.3472 110.7495 15.23128409 23052,6874.5480000000025,94.542,497.616,495.211,0.0
53183.0,STARLINK-4268,PAYLOAD,2022-12-07 22:00:00,15.21683929,0.000179,53.2162,61.5305,47.0314,166.7396,-0.055364,-0.01168387,0.0,0 STARLINK-4268,1 53183U 22083BD  22341.91667824 -.01168387  00000-0 -55364-1 0  9990,2 53183  53.2162  61.5305 0001790  47.0314 166.7396 15.21683929 23152,6878.898,94.632,501.994,499.532,0.0
53183.0,STARLINK-4268,PAYLOAD,2022-12-08 00:00:00,15.21434943,0.0001621,53.2168,61.1472,44.5241,265.9851,-0.05164,-0.01074351,0.0,0 STARLINK-4268,1 53183U 22083BD  22342.00001157 -.01074351  00000-0 -51640-1 0  9992,2 53183  53.2168  61.1472 0001621  44.5241 265.9851 15.21434943  1304,6879.649,94.647,502.629,500.398,0.0
53183.0,STARLINK-4268,PAYLOAD,2022-12-08 14:00:01,15.20110672,0.0001575999999999,53.2164,58.4774,57.9479,207.9103,-0.053941,-0.01092696,0.0,0 STARLINK-4268,1 53183U 22083BD  22342.58334491 -.01092696  00000-0 -53941-1 0  9993,2 53183  53.2164  58.4774 0001576  57.9479 207.9103 15.20110672  1309,6883.643,94.73,506.593,504.424,0.0
